{"type": "FeatureCollection", "features": [ {"type": "Feature", "properties": {"norad_id": 55012, "name": "CONNECTA T1.2", "group": "active", "lat": 74.88432732168171, "lon": 10.206323562665194, "alt_km": 433.64463070029524, "timestamp": "2025-12-01T03:58:49.260355+00:00", "meta": {"OBJECT_NAME": "CONNECTA T1.2", "OBJECT_ID": "2023-001D", "EPOCH": "2025-11-30T10:29:33.348192", "MEAN_MOTION": 15.39817311, "ECCENTRICITY": 0.00090392, "INCLINATION": 97.3581, "RA_OF_ASC_NODE": 38.0555, "ARG_OF_PERICENTER": 98.6723, "MEAN_ANOMALY": 261.5547, "EPHEMERIS_TYPE": 0, "CLASSIFICATION_TYPE": "U", "NORAD_CAT_ID": 55012, "ELEMENT_SET_NO": 999, "REV_AT_EPOCH": 16186, "BSTAR": 0.00042111697, "MEAN_MOTION_DOT": 0.00016656, "MEAN_MOTION_DDOT": 0, "GROUP": "active"}, "tle": {"line1": "1 55012U 23001D   25334.43719153  .00016656  00000+0  42112-3 0  9995", "line2": "2 55012  97.3581  38.0555 0009039  98.6723 261.5547 15.39817311161861"}}, "geometry": {"type": "Point", "coordinates": [10.206323562665194, 74.88432732168171]}}, {"type": "Feature", "properties": {"norad_id": 55015, "name": "BIRKELAND", "group": "active", "lat": -49.67762859861294, "lon": 46.6942700520104, "alt_km": 470.6828170202298, "timestamp": "2025-12-01T03:58:49.260365+00:00", "meta": {"OBJECT_NAME": "BIRKELAND", "OBJECT_ID": "2023-001G", "EPOCH": "2025-11-30T20:22:49.484640", "MEAN_MOTION": 15.3580481, "ECCENTRICITY": 0.0009019, "INCLINATION": 97.3627, "RA_OF_ASC_NODE": 37.6144, "ARG_OF_PERICENTER": 98.8565, "MEAN_ANOMALY": 261.37, "EPHEMERIS_TYPE": 0, "CLASSIFICATION_TYPE": "U", "NORAD_CAT_ID": 55015, "ELEMENT_SET_NO": 999, "REV_AT_EPOCH": 16186, "BSTAR": 0.00030409, "MEAN_MOTION_DOT": 0.00010528, "MEAN_MOTION_DDOT": 0, "GROUP": "active"}, "tle": {"line1": "1 55015U 23001G   25334.84918385  .00010528  00000+0  30409-3 0  9999", "line2": "2 55015  97.3627  37.6144 0009019  98.8565 261.3700 15.35804810161863"}}, "geometry": {"type": "Point", "coordinates": [46.6942700520104, -49.67762859861294]}}, {"type": "Feature", "properties": {"norad_id": 55019, "name": "KSF3-B", "group": "active", "lat": 19.856277215986513, "lon": 50.1643846942204, "alt_km": 274.8041194997186, "timestamp": "2025-12-01T03:58:49.260376+00:00", "meta": {"OBJECT_NAME": "KSF3-B", "OBJECT_ID": "2023-001L", "EPOCH": "2025-11-30T15:53:02.117184", "MEAN_MOTION": 15.98966109, "ECCENTRICITY": 0.0007266, "INCLINATION": 97.3396, "RA_OF_ASC_NODE": 52.2804, "ARG_OF_PERICENTER": 299.5223, "MEAN_ANOMALY": 60.5329, "EPHEMERIS_TYPE": 0, "CLASSIFICATION_TYPE": "U", "NORAD_CAT_ID": 55019, "ELEMENT_SET_NO": 999, "REV_AT_EPOCH": 16285, "BSTAR": 0.0016228, "MEAN_MOTION_DOT": 0.00774538, "MEAN_MOTION_DDOT": 0.00027609, "GROUP": "active"}, "tle": {"line1": "1 55019U 23001L   25334.66183006  .00774538  27609-3  16228-2 0  9995", "line2": "2 55019  97.3396  52.2804 0007266 299.5223  60.5329 15.98966109162854"}}, "geometry": {"type": "Point", "coordinates": [50.1643846942204, 19.856277215986513]}}, {"type": "Feature", "properties": {"norad_id": 55034, "name": "LYNK TOWER 4", "group": "active", "lat": -17.8756772954301, "lon": 33.50294217337894, "alt_km": 485.3740744587667, "timestamp": "2025-12-01T03:58:49.260385+00:00", "meta": {"OBJECT_NAME": "LYNK TOWER 4", "OBJECT_ID": "2023-001AB", "EPOCH": "2025-11-30T15:29:59.733600", "MEAN_MOTION": 15.29752527, "ECCENTRICITY": 0.0010639, "INCLINATION": 97.3518, "RA_OF_ASC_NODE": 30.602, "ARG_OF_PERICENTER": 104.9425, "MEAN_ANOMALY": 255.2994, "EPHEMERIS_TYPE": 0, "CLASSIFICATION_TYPE": "U", "NORAD_CAT_ID": 55034, "ELEMENT_SET_NO": 999, "REV_AT_EPOCH": 16143, "BSTAR": 0.00032382, "MEAN_MOTION_DOT": 9.274e-05, "MEAN_MOTION_DDOT": 0, "GROUP": "active"}, "tle": {"line1": "1 55034U 23001AB  25334.64583025  .00009274  00000+0  32382-3 0  9995", "line2": "2 55034  97.3518  30.6020 0010639 104.9425 255.2994 15.29752527161433"}}, "geometry": {"type": "Point", "coordinates": [33.50294217337894, -17.8756772954301]}}, {"type": "Feature", "properties": {"norad_id": 55041, "name": "SKYKRAFT-1", "group": "active", "lat": 45.23637330036332, "lon": 34.19145801364768, "alt_km": 411.29331357416686, "timestamp": "2025-12-01T03:58:49.260395+00:00", "meta": {"OBJECT_NAME": "SKYKRAFT-1", "OBJECT_ID": "2023-001AJ", "EPOCH": "2025-11-30T20:01:56.363232", "MEAN_MOTION": 15.49090471, "ECCENTRICITY": 0.0007097, "INCLINATION": 97.3505, "RA_OF_ASC_NODE": 41.3331, "ARG_OF_PERICENTER": 76.2185, "MEAN_ANOMALY": 283.9855, "EPHEMERIS_TYPE": 0, "CLASSIFICATION_TYPE": "U", "NORAD_CAT_ID": 55041, "ELEMENT_SET_NO": 999, "REV_AT_EPOCH": 16217, "BSTAR": 0.00064998, "MEAN_MOTION_DOT": 0.00035328, "MEAN_MOTION_DDOT": 0, "GROUP": "active"}, "tle": {"line1": "1 55041U 23001AJ  25334.83468013  .00035328  00000+0  64998-3 0  9990", "line2": "2 55041  97.3505  41.3331 0007097  76.2185 283.9855 15.49090471162170"}}, "geometry": {"type": "Point", "coordinates": [34.19145801364768, 45.23637330036332]}}, {"type": "Feature", "properties": {"norad_id": 55045, "name": "NUSAT-34 (AMELIA EARHART)", "group": "active", "lat": 52.77522357223638, "lon": 26.22356263231709, "alt_km": 476.61158803610124, "timestamp": "2025-12-01T03:58:49.260406+00:00", "meta": {"OBJECT_NAME": "NUSAT-34 (AMELIA EARHART)", "OBJECT_ID": "2023-001AN", "EPOCH": "2025-11-30T19:52:44.616288", "MEAN_MOTION": 15.2606994, "ECCENTRICITY": 0.0009289, "INCLINATION": 97.3627, "RA_OF_ASC_NODE": 35.6906, "ARG_OF_PERICENTER": 73.2071, "MEAN_ANOMALY": 287.0186, "EPHEMERIS_TYPE": 0, "CLASSIFICATION_TYPE": "U", "NORAD_CAT_ID": 55045, "ELEMENT_SET_NO": 999, "REV_AT_EPOCH": 16196, "BSTAR": 0.00051667, "MEAN_MOTION_DOT": 0.00013267, "MEAN_MOTION_DDOT": 0, "GROUP": "active"}, "tle": {"line1": "1 55045U 23001AN  25334.82829417  .00013267  00000+0  51667-3 0  9999", "line2": "2 55045  97.3627  35.6906 0009289  73.2071 287.0186 15.26069940161969"}}, "geometry": {"type": "Point", "coordinates": [26.22356263231709, 52.77522357223638]}}, {"type": "Feature", "properties": {"norad_id": 55046, "name": "LYNK TOWER 3", "group": "active", "lat": 11.15858598115302, "lon": 30.32426349999659, "alt_km": 474.3161801950391, "timestamp": "2025-12-01T03:58:49.260415+00:00", "meta": {"OBJECT_NAME": "LYNK TOWER 3", "OBJECT_ID": "2023-001AP", "EPOCH": "2025-11-30T15:23:00.796416", "MEAN_MOTION": 15.31134282, "ECCENTRICITY": 0.0010375, "INCLINATION": 97.3519, "RA_OF_ASC_NODE": 31.2634, "ARG_OF_PERICENTER": 106.4545, "MEAN_ANOMALY": 253.7837, "EPHEMERIS_TYPE": 0, "CLASSIFICATION_TYPE": "U", "NORAD_CAT_ID": 55046, "ELEMENT_SET_NO": 999, "REV_AT_EPOCH": 16147, "BSTAR": 0.00044314, "MEAN_MOTION_DOT": 0.00013281, "MEAN_MOTION_DDOT": 0, "GROUP": "active"}, "tle": {"line1": "1 55046U 23001AP  25334.64098144  .00013281  00000+0  44314-3 0  9992", "line2": "2 55046  97.3519  31.2634 0010375 106.4545 253.7837 15.31134282161470"}}, "geometry": {"type": "Point", "coordinates": [30.32426349999659, 11.15858598115302]}}, {"type": "Feature", "properties": {"norad_id": 55047, "name": "NUSAT-33 (ALBANIA-2)", "group": "active", "lat": -53.259499987176056, "lon": -155.06262921576638, "alt_km": 496.9180980142537, "timestamp": "2025-12-01T03:58:49.260425+00:00", "meta": {"OBJECT_NAME": "NUSAT-33 (ALBANIA-2)", "OBJECT_ID": "2023-001AQ", "EPOCH": "2025-11-30T20:40:12.153792", "MEAN_MOTION": 15.27268867, "ECCENTRICITY": 0.0008808, "INCLINATION": 97.3339, "RA_OF_ASC_NODE": 34.5733, "ARG_OF_PERICENTER": 43.2139, "MEAN_ANOMALY": 316.9789, "EPHEMERIS_TYPE": 0, "CLASSIFICATION_TYPE": "U", "NORAD_CAT_ID": 55047, "ELEMENT_SET_NO": 999, "REV_AT_EPOCH": 16204, "BSTAR": 0.00051512, "MEAN_MOTION_DOT": 0.00013715, "MEAN_MOTION_DDOT": 0, "GROUP": "active"}, "tle": {"line1": "1 55047U 23001AQ  25334.86125178  .00013715  00000+0  51512-3 0  9995", "line2": "2 55047  97.3339  34.5733 0008808  43.2139 316.9789 15.27268867162046"}}, "geometry": {"type": "Point", "coordinates": [-155.06262921576638, -53.259499987176056]}}, {"type": "Feature", "properties": {"norad_id": 55048, "name": "NUSAT-35 (WILLIAMINA)", "group": "active", "lat": 24.015131343471534, "lon": -148.5348991592711, "alt_km": 470.4708631198373, "timestamp": "2025-12-01T03:58:49.260435+00:00", "meta": {"OBJECT_NAME": "NUSAT-35 (WILLIAMINA)", "OBJECT_ID": "2023-001AR", "EPOCH": "2025-11-30T19:27:39.874752", "MEAN_MOTION": 15.31154708, "ECCENTRICITY": 0.0007145, "INCLINATION": 97.2187, "RA_OF_ASC_NODE": 27.8822, "ARG_OF_PERICENTER": 83.4655, "MEAN_ANOMALY": 276.74, "EPHEMERIS_TYPE": 0, "CLASSIFICATION_TYPE": "U", "NORAD_CAT_ID": 55048, "ELEMENT_SET_NO": 999, "REV_AT_EPOCH": 16202, "BSTAR": 0.00053781, "MEAN_MOTION_DOT": 0.00016139, "MEAN_MOTION_DDOT": 0, "GROUP": "active"}, "tle": {"line1": "1 55048U 23001AR  25334.81087818  .00016139  00000+0  53781-3 0  9992", "line2": "2 55048  97.2187  27.8822 0007145  83.4655 276.7400 15.31154708162027"}}, "geometry": {"type": "Point", "coordinates": [-148.5348991592711, 24.015131343471534]}}, {"type": "Feature", "properties": {"norad_id": 55049, "name": "ICEYE-X21", "group": "active", "lat": 72.22455178541885, "lon": -111.57478341648621, "alt_km": 384.376319853076, "timestamp": "2025-12-01T03:58:49.260445+00:00", "meta": {"OBJECT_NAME": "ICEYE-X21", "OBJECT_ID": "2023-001AS", "EPOCH": "2025-11-30T19:48:53.186976", "MEAN_MOTION": 15.5701954, "ECCENTRICITY": 0.0011217, "INCLINATION": 97.3571, "RA_OF_ASC_NODE": 44.3064, "ARG_OF_PERICENTER": 57.2335, "MEAN_ANOMALY": 302.9999, "EPHEMERIS_TYPE": 0, "CLASSIFICATION_TYPE": "U", "NORAD_CAT_ID": 55049, "ELEMENT_SET_NO": 999, "REV_AT_EPOCH": 16234, "BSTAR": 0.00086324, "MEAN_MOTION_DOT": 0.00062792, "MEAN_MOTION_DDOT": 0, "GROUP": "active"}, "tle": {"line1": "1 55049U 23001AS  25334.82561559  .00062792  00000+0  86324-3 0  9998", "line2": "2 55049  97.3571  44.3064 0011217  57.2335 302.9999 15.57019540162349"}}, "geometry": {"type": "Point", "coordinates": [-111.57478341648621, 72.22455178541885]}}]}